{"type": "FeatureCollection", "features": [ {"type": "Feature", "properties": {"norad_id": 61186, "name": "BEIDOU-3 M25 (C47)", "group": "beidou", "lat": -44.47655393154424, "lon": -95.8602395266044, "alt_km": 21518.07444162197, "timestamp": "2025-12-24T07:45:06.465400+00:00", "meta": {"OBJECT_NAME": "BEIDOU-3 M25 (C47)", "OBJECT_ID": "2024-168B", "EPOCH": "2025-12-23T15:27:08.107776", "MEAN_MOTION": 1.86230111, "ECCENTRICITY": 0.00054346, "INCLINATION": 54.6324, "RA_OF_ASC_NODE": 308.3432, "ARG_OF_PERICENTER": 299.8932, "MEAN_ANOMALY": 265.5562, "EPHEMERIS_TYPE": 0, "CLASSIFICATION_TYPE": "U", "NORAD_CAT_ID": 61186, "ELEMENT_SET_NO": 999, "REV_AT_EPOCH": 851, "BSTAR": 0, "MEAN_MOTION_DOT": -5.4e-07, "MEAN_MOTION_DDOT": 0}, "tle": {"line1": "1 61186U 24168B   25357.64384384 -.00000054  00000+0  00000+0 0  9993", "line2": "2 61186  54.6324 308.3432 0005434 299.8932 265.5562  1.86230111  8517"}}, "geometry": {"type": "Point", "coordinates": [-95.8602395266044, -44.47655393154424]}}, {"type": "Feature", "properties": {"norad_id": 61187, "name": "BEIDOU-3 M27 (C49)", "group": "beidou", "lat": 52.23304684888908, "lon": 14.62726460802066, "alt_km": 21522.611777417453, "timestamp": "2025-12-24T07:45:06.465411+00:00", "meta": {"OBJECT_NAME": "BEIDOU-3 M27 (C49)", "OBJECT_ID": "2024-168C", "EPOCH": "2025-12-23T10:00:54.789120", "MEAN_MOTION": 1.86230279, "ECCENTRICITY": 0.00025534, "INCLINATION": 54.6281, "RA_OF_ASC_NODE": 308.3346, "ARG_OF_PERICENTER": 340.8055, "MEAN_ANOMALY": 207.7074, "EPHEMERIS_TYPE": 0, "CLASSIFICATION_TYPE": "U", "NORAD_CAT_ID": 61187, "ELEMENT_SET_NO": 999, "REV_AT_EPOCH": 598, "BSTAR": 0, "MEAN_MOTION_DOT": -5.4e-07, "MEAN_MOTION_DDOT": 0}, "tle": {"line1": "1 61187U 24168C   25357.41730080 -.00000054  00000+0  00000+0 0  9997", "line2": "2 61187  54.6281 308.3346 0002553 340.8055 207.7074  1.86230279  5985"}}, "geometry": {"type": "Point", "coordinates": [14.62726460802066, 52.23304684888908]}}]}